[Satellite]
VERSION=1.1
NAME=CANX-2
NICKNAME=CANX-2
TLE1=1 32790U 08021H   18020.60707171  .00000193  00000-0  26766-4 0  9996
TLE2=2 32790  97.5531  38.0325 0014173 163.9397 196.2272 14.87758771527163
